GLOBALSTAR M067         
1 32263U 07048A   25356.06766800 -.00000077  00000+0  15300-3 0  9995
2 32263  51.9700 206.1729 0002011  52.4491 113.6816 12.40683087832802
GLOBALSTAR M070         
1 32264U 07048B   25356.09899513 -.00000063  00000+0  22530-3 0  9995
2 32264  51.9757 276.0434 0000547  63.2605 310.0813 12.62327665837405
GLOBALSTAR M066         
1 32265U 07048C   25355.88749722 -.00000086  00000+0  68075-4 0  9998
2 32265  51.9567 206.8893 0005684  40.5210 332.9797 12.30383555838402
GLOBALSTAR M068         
1 32266U 07048D   25356.19800859 -.00000079  00000+0  13793-3 0  9991
2 32266  51.9888  89.1293 0001514 162.0978 212.2326 12.62835659841318
GLOBALSTAR M079         
1 37188U 10054A   25356.17715567 -.00000083  00000+0  11597-3 0  9994
2 37188  52.0051 287.5161 0000753  33.9077 106.4483 12.62261695700199
GLOBALSTAR M074         
1 37189U 10054B   25355.25583273 -.00000080  00000+0  13359-3 0  9995
2 37189  52.0027 289.6140 0000818  58.2795  93.0418 12.62264226700688
GLOBALSTAR M076         
1 37190U 10054C   25355.97895204 -.00000080  00000+0  13056-3 0  9990
2 37190  52.0041 287.6019 0000923  49.5346  28.3259 12.62268307700498
GLOBALSTAR M077         
1 37191U 10054D   25356.15503766 -.00000087  00000+0 -15616-3 0  9993
2 37191  51.9978 268.9735 0001315  39.1774 109.8375 11.68176432700451
